[{"OBJECT_NAME":"SALSAT","OBJECT_ID":"2020-068K","EPOCH":"2026-03-09T22:26:21.804576","MEAN_MOTION":15.28191989,"ECCENTRICITY":0.00082652,"INCLINATION":97.8859,"RA_OF_ASC_NODE":66.0795,"ARG_OF_PERICENTER":295.8051,"MEAN_ANOMALY":64.2334,"EPHEMERIS_TYPE":0,"CLASSIFICATION_TYPE":"U","NORAD_CAT_ID":46495,"ELEMENT_SET_NO":999,"REV_AT_EPOCH":30019,"BSTAR":0.00040842582,"MEAN_MOTION_DOT":0.00011156,"MEAN_MOTION_DDOT":0},{"OBJECT_NAME":"STARLINK-30580","OBJECT_ID":"2023-161U","EPOCH":"2026-03-09T13:15:27.480960","MEAN_MOTION":15.30197147,"ECCENTRICITY":0.00013868,"INCLINATION":53.1604,"RA_OF_ASC_NODE":165.9333,"ARG_OF_PERICENTER":87.8627,"MEAN_ANOMALY":272.2532,"EPHEMERIS_TYPE":0,"CLASSIFICATION_TYPE":"U","NORAD_CAT_ID":58115,"ELEMENT_SET_NO":999,"REV_AT_EPOCH":13439,"BSTAR":-7.8229291e-5,"MEAN_MOTION_DOT":-2.675e-5,"MEAN_MOTION_DDOT":0}]
